STARLINK-36848          
1 67936U 26037E   26083.25002315  .00061045  00000+0  10390-2 0  9996
2 67936  42.9993 110.9610 0001357 266.7723 299.9690 15.50558477  5530
STARLINK-36370          
1 67937U 26037F   26083.25002315  .00024085  00000+0  41551-3 0  9994
2 67937  43.0001 110.7473 0001614 281.0904  12.4746 15.50551473  5534
STARLINK-36371          
1 67938U 26037G   26083.25002315  .00030469  00000+0  52388-3 0  9998
2 67938  42.9997 110.4638 0001133 274.1476 133.3190 15.50540556  5536
STARLINK-36246          
1 67939U 26037H   26083.25002315  .00062054  00000+0  10560-2 0  9999
2 67939  42.9998 110.8850 0001135 289.3156 307.7793 15.50559048  5456
STARLINK-36907          
1 67940U 26037J   26083.25002315 -.01854034  00000+0 -32021-1 0  9996
2 67940  42.9993 110.1018 0000835 280.9494 272.9803 15.53622726  5531
STARLINK-36927          
1 67941U 26037K   26083.25002315  .00039545  00000+0  67813-3 0  9995
2 67941  42.9994 110.2573 0001009 255.6459 234.9328 15.50510562  5535
STARLINK-36914          
1 67942U 26037L   26083.25002315 -.01901559  00000+0 -28175-1 0  9998
2 67942  42.9998 109.8887 0001064 272.2696   7.7445 15.57807461  5531
STARLINK-36851          
1 67943U 26037M   26083.25002315 -.01710481  00000+0 -31295-1 0  9998
2 67943  42.9996 110.2247 0001537 305.6593 198.2020 15.51762349  5532
STARLINK-36892          
1 67944U 26037N   26083.25002315 -.02149231  00000+0 -38212-1 0  9995
2 67944  42.9994 110.1536 0000916 272.8498 260.1139 15.52778838  5531
STARLINK-36908          
1 67945U 26037P   26083.25002315 -.01596723  00000+0 -27354-1 0  9992
2 67945  42.9995 110.0814 0001138 273.7468 288.7827 15.53354247  5530
STARLINK-36909          
1 67946U 26037Q   26083.25002315 -.01909061  00000+0 -26082-1 0  9993
2 67946  42.9995 109.7183 0001268 272.3378  75.6232 15.59934396  5532
STARLINK-36920          
1 67947U 26037R   26083.25002315  .00017986  00000+0  31185-3 0  9999
2 67947  42.9995 110.3623 0001683 267.6705 179.9207 15.50565470  5536
STARLINK-36873          
1 67948U 26037S   26083.25002315  .00062015  00000+0  10543-2 0  9997
2 67948  42.9994 110.4349 0001927 303.2718 114.8133 15.50584222  5536
STARLINK-36863          
1 67949U 26037T   26083.25002315 -.02008578  00000+0 -36218-1 0  9992
2 67949  42.9997 110.1220 0000697 294.8950 250.1886 15.52164531  5539
STARLINK-36887          
1 67950U 26037U   26083.25002315  .00031970  00000+0  54895-3 0  9995
2 67950  42.9994 111.0509 0001424 270.8873 258.3604 15.50558266  5533
STARLINK-36897          
1 67951U 26037V   26083.25002315 -.00294203  00000+0 -51805-2 0  9995
2 67951  42.9993 110.1655 0000993 289.0392 237.8241 15.50683991  5536
