[{"OBJECT_NAME":"STARLINK-36848","OBJECT_ID":"2026-037E","EPOCH":"2026-03-24T06:00:02.000160","MEAN_MOTION":15.50558477,"ECCENTRICITY":0.00013575,"INCLINATION":42.9993,"RA_OF_ASC_NODE":110.961,"ARG_OF_PERICENTER":266.7723,"MEAN_ANOMALY":299.969,"EPHEMERIS_TYPE":0,"CLASSIFICATION_TYPE":"U","NORAD_CAT_ID":67936,"ELEMENT_SET_NO":999,"REV_AT_EPOCH":553,"BSTAR":0.0010390254,"MEAN_MOTION_DOT":0.00061045,"MEAN_MOTION_DDOT":0},{"OBJECT_NAME":"STARLINK-36370","OBJECT_ID":"2026-037F","EPOCH":"2026-03-24T06:00:02.000160","MEAN_MOTION":15.50551473,"ECCENTRICITY":0.00016146,"INCLINATION":43.0001,"RA_OF_ASC_NODE":110.7473,"ARG_OF_PERICENTER":281.0904,"MEAN_ANOMALY":12.4746,"EPHEMERIS_TYPE":0,"CLASSIFICATION_TYPE":"U","NORAD_CAT_ID":67937,"ELEMENT_SET_NO":999,"REV_AT_EPOCH":553,"BSTAR":0.0004155081,"MEAN_MOTION_DOT":0.00024085,"MEAN_MOTION_DDOT":0},{"OBJECT_NAME":"STARLINK-36371","OBJECT_ID":"2026-037G","EPOCH":"2026-03-24T06:00:02.000160","MEAN_MOTION":15.50540556,"ECCENTRICITY":0.00011339,"INCLINATION":42.9997,"RA_OF_ASC_NODE":110.4638,"ARG_OF_PERICENTER":274.1476,"MEAN_ANOMALY":133.319,"EPHEMERIS_TYPE":0,"CLASSIFICATION_TYPE":"U","NORAD_CAT_ID":67938,"ELEMENT_SET_NO":999,"REV_AT_EPOCH":553,"BSTAR":0.00052387899,"MEAN_MOTION_DOT":0.00030469,"MEAN_MOTION_DDOT":0},{"OBJECT_NAME":"STARLINK-36246","OBJECT_ID":"2026-037H","EPOCH":"2026-03-24T06:00:02.000160","MEAN_MOTION":15.50559048,"ECCENTRICITY":0.00011354,"INCLINATION":42.9998,"RA_OF_ASC_NODE":110.885,"ARG_OF_PERICENTER":289.3156,"MEAN_ANOMALY":307.7793,"EPHEMERIS_TYPE":0,"CLASSIFICATION_TYPE":"U","NORAD_CAT_ID":67939,"ELEMENT_SET_NO":999,"REV_AT_EPOCH":545,"BSTAR":0.0010559635,"MEAN_MOTION_DOT":0.00062054,"MEAN_MOTION_DDOT":0},{"OBJECT_NAME":"STARLINK-36907","OBJECT_ID":"2026-037J","EPOCH":"2026-03-24T06:00:02.000160","MEAN_MOTION":15.53622726,"ECCENTRICITY":8.359e-5,"INCLINATION":42.9993,"RA_OF_ASC_NODE":110.1018,"ARG_OF_PERICENTER":280.9494,"MEAN_ANOMALY":272.9803,"EPHEMERIS_TYPE":0,"CLASSIFICATION_TYPE":"U","NORAD_CAT_ID":67940,"ELEMENT_SET_NO":999,"REV_AT_EPOCH":553,"BSTAR":-0.03202138,"MEAN_MOTION_DOT":-0.01854034,"MEAN_MOTION_DDOT":0},{"OBJECT_NAME":"STARLINK-36927","OBJECT_ID":"2026-037K","EPOCH":"2026-03-24T06:00:02.000160","MEAN_MOTION":15.50510562,"ECCENTRICITY":0.00010097,"INCLINATION":42.9994,"RA_OF_ASC_NODE":110.2573,"ARG_OF_PERICENTER":255.6459,"MEAN_ANOMALY":234.9328,"EPHEMERIS_TYPE":0,"CLASSIFICATION_TYPE":"U","NORAD_CAT_ID":67941,"ELEMENT_SET_NO":999,"REV_AT_EPOCH":553,"BSTAR":0.00067813038,"MEAN_MOTION_DOT":0.00039545,"MEAN_MOTION_DDOT":0},{"OBJECT_NAME":"STARLINK-36914","OBJECT_ID":"2026-037L","EPOCH":"2026-03-24T06:00:02.000160","MEAN_MOTION":15.57807461,"ECCENTRICITY":0.00010641,"INCLINATION":42.9998,"RA_OF_ASC_NODE":109.8887,"ARG_OF_PERICENTER":272.2696,"MEAN_ANOMALY":7.7445,"EPHEMERIS_TYPE":0,"CLASSIFICATION_TYPE":"U","NORAD_CAT_ID":67942,"ELEMENT_SET_NO":999,"REV_AT_EPOCH":553,"BSTAR":-0.028174938,"MEAN_MOTION_DOT":-0.01901559,"MEAN_MOTION_DDOT":0},{"OBJECT_NAME":"STARLINK-36851","OBJECT_ID":"2026-037M","EPOCH":"2026-03-24T06:00:02.000160","MEAN_MOTION":15.51762349,"ECCENTRICITY":0.00015379,"INCLINATION":42.9996,"RA_OF_ASC_NODE":110.2247,"ARG_OF_PERICENTER":305.6593,"MEAN_ANOMALY":198.202,"EPHEMERIS_TYPE":0,"CLASSIFICATION_TYPE":"U","NORAD_CAT_ID":67943,"ELEMENT_SET_NO":999,"REV_AT_EPOCH":553,"BSTAR":-0.031294932,"MEAN_MOTION_DOT":-0.01710481,"MEAN_MOTION_DDOT":0},{"OBJECT_NAME":"STARLINK-36892","OBJECT_ID":"2026-037N","EPOCH":"2026-03-24T06:00:02.000160","MEAN_MOTION":15.52778838,"ECCENTRICITY":9.162e-5,"INCLINATION":42.9994,"RA_OF_ASC_NODE":110.1536,"ARG_OF_PERICENTER":272.8498,"MEAN_ANOMALY":260.1139,"EPHEMERIS_TYPE":0,"CLASSIFICATION_TYPE":"U","NORAD_CAT_ID":67944,"ELEMENT_SET_NO":999,"REV_AT_EPOCH":553,"BSTAR":-0.03821219,"MEAN_MOTION_DOT":-0.02149231,"MEAN_MOTION_DDOT":0},{"OBJECT_NAME":"STARLINK-36908","OBJECT_ID":"2026-037P","EPOCH":"2026-03-24T06:00:02.000160","MEAN_MOTION":15.53354247,"ECCENTRICITY":0.00011385,"INCLINATION":42.9995,"RA_OF_ASC_NODE":110.0814,"ARG_OF_PERICENTER":273.7468,"MEAN_ANOMALY":288.7827,"EPHEMERIS_TYPE":0,"CLASSIFICATION_TYPE":"U","NORAD_CAT_ID":67945,"ELEMENT_SET_NO":999,"REV_AT_EPOCH":553,"BSTAR":-0.027354191,"MEAN_MOTION_DOT":-0.01596723,"MEAN_MOTION_DDOT":0},{"OBJECT_NAME":"STARLINK-36909","OBJECT_ID":"2026-037Q","EPOCH":"2026-03-24T06:00:02.000160","MEAN_MOTION":15.59934396,"ECCENTRICITY":0.00012683,"INCLINATION":42.9995,"RA_OF_ASC_NODE":109.7183,"ARG_OF_PERICENTER":272.3378,"MEAN_ANOMALY":75.6232,"EPHEMERIS_TYPE":0,"CLASSIFICATION_TYPE":"U","NORAD_CAT_ID":67946,"ELEMENT_SET_NO":999,"REV_AT_EPOCH":553,"BSTAR":-0.02608166,"MEAN_MOTION_DOT":-0.01909061,"MEAN_MOTION_DDOT":0},{"OBJECT_NAME":"STARLINK-36920","OBJECT_ID":"2026-037R","EPOCH":"2026-03-24T06:00:02.000160","MEAN_MOTION":15.5056547,"ECCENTRICITY":0.00016831,"INCLINATION":42.9995,"RA_OF_ASC_NODE":110.3623,"ARG_OF_PERICENTER":267.6705,"MEAN_ANOMALY":179.9207,"EPHEMERIS_TYPE":0,"CLASSIFICATION_TYPE":"U","NORAD_CAT_ID":67947,"ELEMENT_SET_NO":999,"REV_AT_EPOCH":553,"BSTAR":0.0003118528,"MEAN_MOTION_DOT":0.00017986,"MEAN_MOTION_DDOT":0},{"OBJECT_NAME":"STARLINK-36873","OBJECT_ID":"2026-037S","EPOCH":"2026-03-24T06:00:02.000160","MEAN_MOTION":15.50584222,"ECCENTRICITY":0.00019277,"INCLINATION":42.9994,"RA_OF_ASC_NODE":110.4349,"ARG_OF_PERICENTER":303.2718,"MEAN_ANOMALY":114.8133,"EPHEMERIS_TYPE":0,"CLASSIFICATION_TYPE":"U","NORAD_CAT_ID":67948,"ELEMENT_SET_NO":999,"REV_AT_EPOCH":553,"BSTAR":0.0010543198,"MEAN_MOTION_DOT":0.00062015,"MEAN_MOTION_DDOT":0},{"OBJECT_NAME":"STARLINK-36863","OBJECT_ID":"2026-037T","EPOCH":"2026-03-24T06:00:02.000160","MEAN_MOTION":15.52164531,"ECCENTRICITY":6.973e-5,"INCLINATION":42.9997,"RA_OF_ASC_NODE":110.122,"ARG_OF_PERICENTER":294.895,"MEAN_ANOMALY":250.1886,"EPHEMERIS_TYPE":0,"CLASSIFICATION_TYPE":"U","NORAD_CAT_ID":67949,"ELEMENT_SET_NO":999,"REV_AT_EPOCH":553,"BSTAR":-0.036217748,"MEAN_MOTION_DOT":-0.02008578,"MEAN_MOTION_DDOT":0},{"OBJECT_NAME":"STARLINK-36887","OBJECT_ID":"2026-037U","EPOCH":"2026-03-24T06:00:02.000160","MEAN_MOTION":15.50558266,"ECCENTRICITY":0.00014247,"INCLINATION":42.9994,"RA_OF_ASC_NODE":111.0509,"ARG_OF_PERICENTER":270.8873,"MEAN_ANOMALY":258.3604,"EPHEMERIS_TYPE":0,"CLASSIFICATION_TYPE":"U","NORAD_CAT_ID":67950,"ELEMENT_SET_NO":999,"REV_AT_EPOCH":553,"BSTAR":0.00054895041,"MEAN_MOTION_DOT":0.0003197,"MEAN_MOTION_DDOT":0},{"OBJECT_NAME":"STARLINK-36897","OBJECT_ID":"2026-037V","EPOCH":"2026-03-24T06:00:02.000160","MEAN_MOTION":15.50683991,"ECCENTRICITY":9.933e-5,"INCLINATION":42.9993,"RA_OF_ASC_NODE":110.1655,"ARG_OF_PERICENTER":289.0392,"MEAN_ANOMALY":237.8241,"EPHEMERIS_TYPE":0,"CLASSIFICATION_TYPE":"U","NORAD_CAT_ID":67951,"ELEMENT_SET_NO":999,"REV_AT_EPOCH":553,"BSTAR":-0.005180508,"MEAN_MOTION_DOT":-0.00294203,"MEAN_MOTION_DDOT":0}]
